{
  "type": "FeatureCollection",
  "features": [
    {
      "type": "Feature",
      "properties": {
        "norad_id": 58701,
        "name": "TIANMU-1 16",
        "group": "weather",
        "lat": 16.938760738970956,
        "lon": -7.24570655716834,
        "alt_km": 494.5861163941945,
        "timestamp": "2025-12-15T14:57:57.486912+00:00",
        "meta_object_name": "TIANMU-1 16",
        "meta_object_id": "2024-004B",
        "meta_epoch": "2025-12-14T22:30:01.631232",
        "meta_mean_motion": 15.24465805,
        "meta_eccentricity": 0.00043807,
        "meta_inclination": 97.4566,
        "meta_ra_of_asc_node": 169.7855,
        "meta_arg_of_pericenter": 286.7841,
        "meta_mean_anomaly": 73.2916,
        "meta_ephemeris_type": 0,
        "meta_classification_type": "U",
        "meta_norad_cat_id": 58701,
        "meta_element_set_no": 999,
        "meta_rev_at_epoch": 10768,
        "meta_bstar": 0.00022717762,
        "meta_mean_motion_dot": 5.508e-05,
        "meta_mean_motion_ddot": 0,
        "tle_line1": "1 58701U 24004B   25348.93751888  .00005508  00000+0  22718-3 0  9992",
        "tle_line2": "2 58701  97.4566 169.7855 0004380 286.7841  73.2916 15.24465805107682"
      },
      "geometry": {
        "type": "Point",
        "coordinates": [
          -7.24570655716834,
          16.938760738970956
        ]
      }
    },
    {
      "type": "Feature",
      "properties": {
        "norad_id": 58702,
        "name": "TIANMU-1 17",
        "group": "weather",
        "lat": -66.65547750444665,
        "lon": -26.79488925372606,
        "alt_km": 497.59878876334824,
        "timestamp": "2025-12-15T14:57:57.486922+00:00",
        "meta_object_name": "TIANMU-1 17",
        "meta_object_id": "2024-004C",
        "meta_epoch": "2025-12-14T23:42:16.289856",
        "meta_mean_motion": 15.24510651,
        "meta_eccentricity": 0.0003589,
        "meta_inclination": 97.4601,
        "meta_ra_of_asc_node": 170.2467,
        "meta_arg_of_pericenter": 289.5056,
        "meta_mean_anomaly": 70.5793,
        "meta_ephemeris_type": 0,
        "meta_classification_type": "U",
        "meta_norad_cat_id": 58702,
        "meta_element_set_no": 999,
        "meta_rev_at_epoch": 10768,
        "meta_bstar": 0.00023114253,
        "meta_mean_motion_dot": 5.613e-05,
        "meta_mean_motion_ddot": 0,
        "tle_line1": "1 58702U 24004C   25348.98768854  .00005613  00000+0  23114-3 0  9997",
        "tle_line2": "2 58702  97.4601 170.2467 0003589 289.5056  70.5793 15.24510651107681"
      },
      "geometry": {
        "type": "Point",
        "coordinates": [
          -26.79488925372606,
          -66.65547750444665
        ]
      }
    },
    {
      "type": "Feature",
      "properties": {
        "norad_id": 58703,
        "name": "TIANMU-1 18",
        "group": "weather",
        "lat": -20.727742065779598,
        "lon": 173.91871356866125,
        "alt_km": 496.3564711278659,
        "timestamp": "2025-12-15T14:57:57.486933+00:00",
        "meta_object_name": "TIANMU-1 18",
        "meta_object_id": "2024-004D",
        "meta_epoch": "2025-12-14T23:18:16.374240",
        "meta_mean_motion": 15.24498886,
        "meta_eccentricity": 0.00029486,
        "meta_inclination": 97.4617,
        "meta_ra_of_asc_node": 170.426,
        "meta_arg_of_pericenter": 289.6368,
        "meta_mean_anomaly": 70.4551,
        "meta_ephemeris_type": 0,
        "meta_classification_type": "U",
        "meta_norad_cat_id": 58703,
        "meta_element_set_no": 999,
        "meta_rev_at_epoch": 10768,
        "meta_bstar": 0.00025707345,
        "meta_mean_motion_dot": 6.248e-05,
        "meta_mean_motion_ddot": 0,
        "tle_line1": "1 58703U 24004D   25348.97102285  .00006248  00000+0  25707-3 0  9992",
        "tle_line2": "2 58703  97.4617 170.4260 0002948 289.6368  70.4551 15.24498886107683"
      },
      "geometry": {
        "type": "Point",
        "coordinates": [
          173.91871356866125,
          -20.727742065779598
        ]
      }
    },
    {
      "type": "Feature",
      "properties": {
        "norad_id": 58990,
        "name": "INSAT-3DS",
        "group": "weather",
        "lat": -0.0121160186766372,
        "lon": 31.11118730786,
        "alt_km": 35788.47918053259,
        "timestamp": "2025-12-15T14:57:57.486943+00:00",
        "meta_object_name": "INSAT-3DS",
        "meta_object_id": "2024-033A",
        "meta_epoch": "2025-12-14T22:18:38.668608",
        "meta_mean_motion": 1.00274009,
        "meta_eccentricity": 0.00012633,
        "meta_inclination": 0.0444,
        "meta_ra_of_asc_node": 128.0583,
        "meta_arg_of_pericenter": 139.1347,
        "meta_mean_anomaly": 233.3992,
        "meta_ephemeris_type": 0,
        "meta_classification_type": "U",
        "meta_norad_cat_id": 58990,
        "meta_element_set_no": 999,
        "meta_rev_at_epoch": 4522,
        "meta_bstar": 0,
        "meta_mean_motion_dot": -1.37e-06,
        "meta_mean_motion_ddot": 0,
        "tle_line1": "1 58990U 24033A   25348.92961422 -.00000137  00000+0  00000+0 0  9990",
        "tle_line2": "2 58990   0.0444 128.0583 0001263 139.1347 233.3992  1.00274009 45229"
      },
      "geometry": {
        "type": "Point",
        "coordinates": [
          31.11118730786,
          -0.0121160186766372
        ]
      }
    },
    {
      "type": "Feature",
      "properties": {
        "norad_id": 59051,
        "name": "METEOR-M2 4",
        "group": "weather",
        "lat": 3.9779891475886613,
        "lon": 127.09554424230753,
        "alt_km": 824.5800824536263,
        "timestamp": "2025-12-15T14:57:57.486952+00:00",
        "meta_object_name": "METEOR-M2 4",
        "meta_object_id": "2024-039A",
        "meta_epoch": "2025-12-14T22:56:51.214848",
        "meta_mean_motion": 14.22401717,
        "meta_eccentricity": 0.00069168,
        "meta_inclination": 98.6768,
        "meta_ra_of_asc_node": 305.8302,
        "meta_arg_of_pericenter": 352.2009,
        "meta_mean_anomaly": 7.906,
        "meta_ephemeris_type": 0,
        "meta_classification_type": "U",
        "meta_norad_cat_id": 59051,
        "meta_element_set_no": 999,
        "meta_rev_at_epoch": 9307,
        "meta_bstar": 4.2730684e-05,
        "meta_mean_motion_dot": 5.1e-07,
        "meta_mean_motion_ddot": 0,
        "tle_line1": "1 59051U 24039A   25348.95614832  .00000051  00000+0  42731-4 0  9994",
        "tle_line2": "2 59051  98.6768 305.8302 0006916 352.2009   7.9060 14.22401717 93070"
      },
      "geometry": {
        "type": "Point",
        "coordinates": [
          127.09554424230753,
          3.9779891475886613
        ]
      }
    },
    {
      "type": "Feature",
      "properties": {
        "norad_id": 60133,
        "name": "GOES 19",
        "group": "weather",
        "lat": -0.002392310956056112,
        "lon": -126.19789294166596,
        "alt_km": 35785.41721539224,
        "timestamp": "2025-12-15T14:57:57.486963+00:00",
        "meta_object_name": "GOES 19",
        "meta_object_id": "2024-119A",
        "meta_epoch": "2025-12-14T21:37:14.068992",
        "meta_mean_motion": 1.00272439,
        "meta_eccentricity": 0.00010688,
        "meta_inclination": 0.0154,
        "meta_ra_of_asc_node": 104.1305,
        "meta_arg_of_pericenter": 212.8663,
        "meta_mean_anomaly": 15.9337,
        "meta_ephemeris_type": 0,
        "meta_classification_type": "U",
        "meta_norad_cat_id": 60133,
        "meta_element_set_no": 999,
        "meta_rev_at_epoch": 511,
        "meta_bstar": 0,
        "meta_mean_motion_dot": -2.29e-06,
        "meta_mean_motion_ddot": 0,
        "tle_line1": "1 60133U 24119A   25348.90085728 -.00000229  00000+0  00000+0 0  9993",
        "tle_line2": "2 60133   0.0154 104.1305 0001068 212.8663  15.9337  1.00272439  5115"
      },
      "geometry": {
        "type": "Point",
        "coordinates": [
          -126.19789294166596,
          -0.002392310956056112
        ]
      }
    },
    {
      "type": "Feature",
      "properties": {
        "norad_id": 65815,
        "name": "FENGYUN 3H",
        "group": "weather",
        "lat": 28.42061173186595,
        "lon": -75.57881131204452,
        "alt_km": 824.1509966025524,
        "timestamp": "2025-12-15T14:57:57.486972+00:00",
        "meta_object_name": "FENGYUN 3H",
        "meta_object_id": "2025-219A",
        "meta_epoch": "2025-12-14T21:55:07.636512",
        "meta_mean_motion": 14.19905345,
        "meta_eccentricity": 6.45e-05,
        "meta_inclination": 98.6586,
        "meta_ra_of_asc_node": 288.4565,
        "meta_arg_of_pericenter": 97.4042,
        "meta_mean_anomaly": 262.7208,
        "meta_ephemeris_type": 0,
        "meta_classification_type": "U",
        "meta_norad_cat_id": 65815,
        "meta_element_set_no": 999,
        "meta_rev_at_epoch": 1123,
        "meta_bstar": 6.7191378e-05,
        "meta_mean_motion_dot": 9.9e-07,
        "meta_mean_motion_ddot": 0,
        "tle_line1": "1 65815U 25219A   25348.91328283  .00000099  00000+0  67191-4 0  9997",
        "tle_line2": "2 65815  98.6586 288.4565 0000645  97.4042 262.7208 14.19905345 11233"
      },
      "geometry": {
        "type": "Point",
        "coordinates": [
          -75.57881131204452,
          28.42061173186595
        ]
      }
    }
  ]
}